COSMOS 2251 DEB         
1 35614U 93036ANH 17345.75536190  .00000454  00000-0  12017-3 0  9993
2 35614  73.9644 108.1298 0103004 275.1551  83.7859 14.48825421452771
